OBJECT_NAME,OBJECT_ID,EPOCH,MEAN_MOTION,ECCENTRICITY,INCLINATION,RA_OF_ASC_NODE,ARG_OF_PERICENTER,MEAN_ANOMALY,EPHEMERIS_TYPE,CLASSIFICATION_TYPE,NORAD_CAT_ID,ELEMENT_SET_NO,REV_AT_EPOCH,BSTAR,MEAN_MOTION_DOT,MEAN_MOTION_DDOT
COSMOS 2530 (RODNIK-S 16),2018-097A,2026-05-12T15:15:39.200832,12.42880620,.00207693,82.5140,244.3419,113.5092,246.8173,0,U,43751,999,33787,.2079575E-3,.39E-6,0
COSMOS 2531 (RODNIK-S 17),2018-097B,2026-05-12T15:48:59.936256,12.42912167,.00178356,82.5185,245.3741,131.2320,229.0300,0,U,43752,999,33789,.16418801E-4,.12E-6,0
COSMOS 2532 (RODNIK-S 18),2018-097C,2026-05-12T14:33:40.220064,12.42908645,.00191894,82.5130,244.2085,133.4889,226.7790,0,U,43753,999,33785,-.27908946E-3,-.29E-6,0
MINXSS-2,2018-099A,2026-05-11T18:31:33.141504,15.44513976,.00076089,97.4547,207.0591,48.2237,311.9661,0,U,43758,999,40850,.46798776E-3,.21666E-3,0
SIRION PATHFINDER-2,2018-099B,2026-05-12T13:36:16.522560,15.14213536,.00102615,97.4283,182.4749,68.9121,291.3207,0,U,43759,999,40723,.17510284E-3,.3136E-4,0
AISTECHSAT 2,2018-099L,2026-05-12T08:42:06.953472,15.15072719,.00062252,97.4325,181.1855,73.1015,287.0899,0,U,43768,999,40685,.18253042E-3,.3351E-4,0
FOX-1CLIFF (AO-95),2018-099N,2026-05-12T14:37:46.716672,15.25919266,.00104416,97.4410,193.0052,112.2597,247.9749,0,U,43770,999,40779,.26976413E-3,.6857E-4,0
RANGE-A,2018-099R,2026-05-12T09:41:21.346656,15.13069017,.00120628,97.3998,176.0333,109.5720,250.6815,0,U,43773,999,40708,.18413041E-3,.3198E-4,0
SNUSAT-2,2018-099AA,2026-05-12T02:19:28.907040,15.21272005,.00117272,97.4090,186.0460,68.0647,292.1834,0,U,43782,999,40754,.2443067E-3,.5401E-4,0
SNUGLITE,2018-099AC,2026-05-12T14:53:50.180352,15.26381155,.00042105,97.3901,187.2682,73.5700,286.6001,0,U,43784,999,40789,.28598566E-3,.7368E-4,0
ITASAT,2018-099AE,2026-05-12T13:50:10.391424,15.18582603,.00143332,97.4060,184.8067,115.1331,245.1392,0,U,43786,999,40750,.20677906E-3,.4218E-4,0
EAGLET-I,2018-099AJ,2026-05-12T14:22:44.264352,15.12658748,.00128609,97.4262,183.2127,107.3761,252.8878,0,U,43790,999,40695,.1454281E-3,.2483E-4,0
ESEO,2018-099AL,2026-05-12T09:22:59.476224,15.04130902,.00133503,97.3997,171.3090,95.5870,264.6879,0,U,43792,999,40642,.12493087E-3,.1677E-4,0
THEA,2018-099AQ,2026-05-12T11:07:59.984544,15.33783439,.00083111,97.4461,201.8409,61.3957,298.8121,0,U,43796,999,40721,.33099846E-3,.10748E-3,0
ASTROCAST 0.1,2018-099AS,2026-05-12T10:57:08.552736,15.47180993,.00039602,97.4389,209.9065,3.0475,357.0798,0,U,43798,999,40890,.40603474E-3,.20564E-3,0
JY1SAT (JO-97),2018-099AX,2026-05-12T03:08:13.420896,15.32491171,.00064753,97.4155,194.8693,53.2825,306.9011,0,U,43803,999,40810,.34171842E-3,.10652E-3,0
SUOMI-100,2018-099AY,2026-05-12T02:55:52.095936,15.27569361,.00110874,97.4213,192.6691,55.6236,304.6050,0,U,43804,999,40791,.27593847E-3,.7378E-4,0
CENTAURI-1,2018-099BD,2026-05-12T02:31:32.812896,15.15983596,.00159305,97.4250,184.6049,94.3157,265.9896,0,U,43809,999,40703,.18316941E-3,.3461E-4,0
GLOBAL-2,2018-099BG,2026-05-12T09:20:10.137408,15.08456965,.00042437,97.3584,170.3916,279.2849,80.7900,0,U,43812,999,40651,.15817475E-3,.2404E-4,0
SEAHAWK-1,2018-099BQ,2026-05-12T10:45:18.127008,15.22201218,.00099127,97.3989,185.4903,79.7794,280.4560,0,U,43820,999,40709,.23606179E-3,.5359E-4,0
SAUDISAT 5A,2018-102A,2026-05-12T14:26:24.840096,15.27674413,.00080628,97.3091,194.8740,256.9938,103.0402,0,U,43831,999,41024,.12836815E-3,.3401E-4,0
SAUDISAT 5B,2018-102C,2026-05-12T15:02:30.403392,15.27950630,.00087542,97.3196,197.9038,259.9989,100.0263,0,U,43833,999,41036,.12013123E-3,.3205E-4,0
ISAT,2018-111D,2026-05-12T13:06:33.626592,15.59488449,.00082785,97.5894,65.2008,83.8062,276.4137,0,U,43879,999,40560,.64422274E-3,.51239E-3,0
UWE-4,2018-111E,2026-05-12T07:59:11.327136,15.43904427,.00106893,97.5854,59.1375,94.4745,265.7724,0,U,43880,999,40524,.43159219E-3,.19579E-3,0
D-STAR ONE (SPARROW),2018-111F,2026-05-12T13:21:16.331328,15.65726462,.0007673,97.6124,70.2860,107.9802,252.2294,0,U,43881,999,40578,.71665389E-3,.72812E-3,0
JILIN-1 09,2019-005B,2026-05-12T13:45:24.518880,15.20189670,.00020686,97.4717,227.8532,172.5019,187.6248,0,U,43943,999,40373,.13876695E-3,.2936E-4,0
JILIN-1 10,2019-005E,2026-05-12T13:47:39.290784,15.25323365,.00092013,97.4758,231.3961,52.6671,307.5404,0,U,43946,999,40388,.14868809E-3,.3676E-4,0
EGYPTSAT-A (MISRSAT-A),2019-008A,2026-05-12T14:22:14.959200,14.72264649,.00013293,98.0054,197.8860,75.2430,284.8925,0,U,44047,999,38800,.52487522E-4,.282E-5,0
