COSMOS 2530 (RODNIK-S *)
1 43751U 18097A   26132.63587038  .00000039  00000+0  20796-3 0  9997
2 43751  82.5140 244.3419 0020769 113.5092 246.8173 12.42880620337876
COSMOS 2531 (RODNIK-S *)
1 43752U 18097B   26132.65902704  .00000012  00000+0  16419-4 0  9990
2 43752  82.5185 245.3741 0017835 131.2320 229.0300 12.42912167337895
COSMOS 2532 (RODNIK-S *)
1 43753U 18097C   26132.60671551 -.00000029  00000+0 -27909-3 0  9994
2 43753  82.5130 244.2085 0019189 133.4889 226.7790 12.42908645337852
MINXSS-2                
1 43758U 18099A   26131.77191136  .00021666  00000+0  46799-3 0  9990
2 43758  97.4547 207.0591 0007608  48.2237 311.9661 15.44513976408505
SIRION PATHFINDER-2     
1 43759U 18099B   26132.56685790  .00003136  00000+0  17510-3 0  9994
2 43759  97.4283 182.4749 0010261  68.9121 291.3207 15.14213536407236
AISTECHSAT 2            
1 43768U 18099L   26132.36258048  .00003351  00000+0  18253-3 0  9998
2 43768  97.4325 181.1855 0006225  73.1015 287.0899 15.15072719406855
FOX-1CLIFF (AO-95)      
1 43770U 18099N   26132.60956848  .00006857  00000+0  26976-3 0  9996
2 43770  97.4410 193.0052 0010441 112.2597 247.9749 15.25919266407790
RANGE-A                 
1 43773U 18099R   26132.40371929  .00003198  00000+0  18413-3 0  9990
2 43773  97.3998 176.0333 0012062 109.5720 250.6815 15.13069017407088
SNUSAT-2                
1 43782U 18099AA  26132.09686235  .00005401  00000+0  24431-3 0  9990
2 43782  97.4090 186.0460 0011727  68.0647 292.1834 15.21272005407543
SNUGLITE                
1 43784U 18099AC  26132.62071968  .00007368  00000+0  28599-3 0  9995
2 43784  97.3901 187.2682 0004210  73.5700 286.6001 15.26381155407898
ITASAT                  
1 43786U 18099AE  26132.57650916  .00004218  00000+0  20678-3 0  9998
2 43786  97.4060 184.8067 0014333 115.1331 245.1392 15.18582603407500
EAGLET-I                
1 43790U 18099AJ  26132.59912343  .00002483  00000+0  14543-3 0  9996
2 43790  97.4262 183.2127 0012860 107.3761 252.8878 15.12658748406952
ESEO                    
1 43792U 18099AL  26132.39096616  .00001677  00000+0  12493-3 0  9998
2 43792  97.3997 171.3090 0013350  95.5870 264.6879 15.04130902406421
THEA                    
1 43796U 18099AQ  26132.46388871  .00010748  00000+0  33100-3 0  9994
2 43796  97.4461 201.8409 0008311  61.3957 298.8121 15.33783439407211
ASTROCAST 0.1           
1 43798U 18099AS  26132.45634899  .00020564  00000+0  40603-3 0  9992
2 43798  97.4389 209.9065 0003960   3.0475 357.0798 15.47180993408908
JY1SAT (JO-97)          
1 43803U 18099AX  26132.13071089  .00010652  00000+0  34172-3 0  9991
2 43803  97.4155 194.8693 0006475  53.2825 306.9011 15.32491171408105
SUOMI-100               
1 43804U 18099AY  26132.12213074  .00007378  00000+0  27594-3 0  9994
2 43804  97.4213 192.6691 0011087  55.6236 304.6050 15.27569361407919
CENTAURI-1              
1 43809U 18099BD  26132.10524089  .00003461  00000+0  18317-3 0  9990
2 43809  97.4250 184.6049 0015930  94.3157 265.9896 15.15983596407033
GLOBAL-2                
1 43812U 18099BG  26132.38900622  .00002404  00000+0  15817-3 0  9993
2 43812  97.3584 170.3916 0004243 279.2849  80.7900 15.08456965406516
SEAHAWK-1               
1 43820U 18099BQ  26132.44812647  .00005359  00000+0  23606-3 0  9995
2 43820  97.3989 185.4903 0009912  79.7794 280.4560 15.22201218407097
SAUDISAT 5A             
1 43831U 18102A   26132.60167639  .00003401  00000+0  12837-3 0  9994
2 43831  97.3091 194.8740 0008062 256.9938 103.0402 15.27674413410242
SAUDISAT 5B             
1 43833U 18102C   26132.62674078  .00003205  00000+0  12013-3 0  9996
2 43833  97.3196 197.9038 0008754 259.9989 100.0263 15.27950630410364
ISAT                    
1 43879U 18111D   26132.54622253  .00051239  00000+0  64422-3 0  9996
2 43879  97.5894  65.2008 0008278  83.8062 276.4137 15.59488449405600
UWE-4                   
1 43880U 18111E   26132.33276999  .00019579  00000+0  43159-3 0  9992
2 43880  97.5854  59.1375 0010689  94.4745 265.7724 15.43904427405247
D-STAR ONE (SPARROW)    
1 43881U 18111F   26132.55643902  .00072812  00000+0  71665-3 0  9991
2 43881  97.6124  70.2860 0007673 107.9802 252.2294 15.65726462405782
JILIN-1 09              
1 43943U 19005B   26132.57320045  .00002936  00000+0  13877-3 0  9996
2 43943  97.4717 227.8532 0002068 172.5019 187.6248 15.20189670403732
JILIN-1 10              
1 43946U 19005E   26132.57476031  .00003676  00000+0  14869-3 0  9990
2 43946  97.4758 231.3961 0009201  52.6671 307.5404 15.25323365403883
EGYPTSAT-A (MISRSAT-A)  
1 44047U 19008A   26132.59878425  .00000282  00000+0  52488-4 0  9991
2 44047  98.0054 197.8860 0001329  75.2430 284.8925 14.72264649388004
